state,city,zip,area_codes,latitude,longitude
TX,El Paso,79936,915,31.84,-106.43
IL,Chicago,60629,"708,773,312",41.83,-87.68
CA,Norwalk,90650,"562,714",33.9,-118.07
NY,Elmhurst,11373,"646,917,718,347",40.72,-73.87
NY,Ridgewood,11385,"718,516,917,212",40.7,-73.89
NY,Brooklyn,11226,"917,718,212",40.64,-73.94
NY,Brooklyn,11220,718,40.64,-73.94
TX,Houston,77084,"281,713,832",29.76,-95.38
CA,Pacoima,91331,818,34.25,-118.41
NY,Brooklyn,11236,"917,718",40.64,-73.94
TX,Katy,77449,"281,713,832",29.79,-95.82
CA,Westminster,92683,"626,714,310,562,949",33.74,-117.99
GA,Atlanta,31139,404,33.76,-84.42
NY,New York,10002,"646,917,212,516,718",40.71,-73.99
TX,Keller,76248,"817,972,682",32.93,-97.22
CA,South Gate,90280,"323,213,310,562",33.94,-118.2
NY,New York,10025,"917,212,646",40.71,-73.99
IL,Chicago,60618,"773,847,312",41.83,-87.68
TX,Grand Prairie,75052,"972,214,817,469",32.69,-97.01
NY,Staten Island,10314,"203,718,347",40.58,-74.14
CA,Hawthorne,90250,"310,323,714,424",33.91,-118.34
CA,San Diego,92154,"619,858",32.56,-117.01
NY,Corona,11368,"917,718",40.74,-73.85
NY,Flushing,11355,"718,347,917",40.77,-73.84
CA,Bell Gardens,90201,"323,562,213,310",33.97,-118.15
CA,Santa Ana,92704,"714,213,949",33.71,-117.9
NY,Brooklyn,11234,"718,917,212,347",40.64,-73.94
CA,Chula Vista,91911,"530,619,760",32.61,-117.03
TX,Brownsville,78521,956,25.92,-97.48
CA,Sylmar,91342,"818,323",34.32,-118.38
NY,Woodside,11377,"718,347",40.74,-73.9
CA,Fontana,92336,909,34.14,-117.45
CA,Long Beach,90805,"562,310,323",33.86,-118.18
IL,Chicago,60639,"773,847,312,815",41.83,-87.68
CA,Fontana,92335,909,34.08,-117.46
NY,Brooklyn,11208,718,40.64,-73.94
CA,Oxnard,93033,805,34.14,-119.1
CA,San Francisco,94112,"415,650",37.72,-122.44
NY,Bronx,10467,"718,347",40.84,-73.87
GA,Lawrenceville,30044,"678,770,404",33.94,-83.99
IL,Chicago,60632,"773,847,312",41.83,-87.68
CA,Watsonville,95076,"408,831,510",36.95,-121.72
CA,La Puente,91744,"626,323",34.02,-117.93
IL,Chicago,60634,"312,773,847",41.83,-87.68
CA,Los Angeles,90011,"213,323",34,-118.25
MO,Saint Peters,63376,"636,314",38.77,-90.6
CA,Chino Hills,91709,"909,714",33.94,-117.72
NY,Brooklyn,11214,"917,718",40.64,-73.94
IL,Chicago,60647,"312,773",41.83,-87.68
TX,Sugar Land,77479,"281,832,713",29.61,-95.61
VA,Virginia Beach,23464,757,36.73,-76.04
TX,Mckinney,75070,"214,469,972",33.2,-96.65
KS,Olathe,66062,913,38.88,-94.81
CA,Pittsburg,94565,"925,510,415",38,-121.83
GA,Lawrenceville,30043,"678,770,404",33.94,-83.99
IL,Chicago,60617,"773,312,708",41.83,-87.68
CA,Anaheim,92804,"714,562,909",33.81,-117.97
NY,Brooklyn,11207,718,40.64,-73.94
CA,Riverside,92503,"909,951",33.89,-117.44
CA,Chula Vista,91910,"619,858",32.63,-117.05
HI,Waipahu,96797,808,21.39,-158.01
VA,Woodbridge,22193,"703,571",38.63,-77.26
TX,Spring,77379,"281,713,832",30.06,-95.38
CA,Simi Valley,93065,"530,805,714",34.25,-118.78
IL,Cicero,60804,"630,708,773,312",41.84,-87.75
TN,Antioch,37013,615,36.04,-86.64
NY,Brooklyn,11235,"718,917,212",40.64,-73.94
GA,Atlanta,30339,"404,678,770",33.86,-84.47
NY,Brooklyn,11229,"631,718,917,347",40.64,-73.94
NY,Bronx,10456,"718,347,646,917",40.84,-73.87
TX,Katy,77450,"281,832,713",29.79,-95.82
TX,Cypress,77429,"281,713,832",29.96,-95.69
TX,El Paso,79912,915,31.84,-106.43
NY,Bronx,10462,"718,914,347,917",40.84,-73.87
CA,San Diego,92126,"858,619,760",32.88,-117.13
IL,Chicago,60623,"773,312,708",41.83,-87.68
NY,Bronx,10453,"917,718",40.84,-73.87
CA,Baldwin Park,91706,"626,714,323",34.09,-117.96
NY,Brooklyn,11211,"516,718,917,646,347",40.64,-73.94
TX,League City,77573,"832,281,713",29.48,-95.1
CA,Union City,94587,"510,310,925,408,916",37.59,-122.06
TX,Dallas,75217,"214,469,972",32.79,-96.76
CO,Aurora,80013,"303,720",39.69,-104.81
NY,Huntington Station,11746,"516,631,212",40.84,-73.4
NY,Brooklyn,11212,718,40.64,-73.94
TX,Frisco,75034,"469,214,972,817",33.14,-96.81
IL,Chicago,60625,"312,773,847",41.83,-87.68
NY,Brooklyn,11219,718,40.64,-73.94
MD,Parkville,21234,"410,443",39.38,-76.55
CA,Los Angeles,90044,"323,310,213",33.95,-118.29
NY,Brooklyn,11230,"718,917",40.64,-73.94
NY,Forest Hills,11375,"646,718,917,212",40.72,-73.84
NY,Bronx,10452,"718,347,646",40.84,-73.87
IL,Chicago,60641,"312,773,630",41.83,-87.68
NC,Charlotte,28269,704,35.19,-80.83
CA,Chino,91710,909,33.98,-117.65
TX,Houston,77095,"281,832,713",29.76,-95.38
FL,Hialeah,33012,"305,786,954",25.86,-80.29
NY,Bronx,10468,718,40.84,-73.87
CA,Fremont,94536,"510,408,925",37.56,-121.98
CA,Rialto,92376,909,34.1,-117.38
NY,Brooklyn,11203,"718,917,212",40.64,-73.94
FL,Miami,33186,"305,786,352",25.77,-80.2
UT,Salt Lake City,84118,"801,435",40.65,-112.01
GA,Suwanee,30024,"770,678,404",34.05,-84.07
CA,Hayward,94544,"510,209,415,925",37.63,-122.04
NJ,Toms River,8753,732,39.95,-74.18
OH,Mentor,44060,440,41.69,-81.33
CA,Fresno,93722,559,36.79,-119.92
NY,Brooklyn,11204,718,40.64,-73.94
NV,Las Vegas,89110,702,36.17,-115.05
CA,Huntington Park,90255,"213,562,626,323,818",33.97,-118.21
TX,Pearland,77584,"832,713,281",29.55,-95.27
IL,Chicago,60620,"773,312",41.83,-87.68
CA,Napa,94558,707,38.55,-122.15
TX,Houston,77083,"281,713,832,972",29.76,-95.38
CA,Bellflower,90706,"310,562,714",33.88,-118.13
CA,Milpitas,95035,"408,510,650",37.44,-121.87
OR,Beaverton,97007,"503,971",45.44,-122.88
CA,Reseda,91335,818,34.2,-118.54
TN,Nashville,37211,615,36.17,-86.78
NY,Jackson Heights,11372,"718,347,917",40.75,-73.88
IL,Chicago,60628,"773,312,847",41.83,-87.68
TX,Pflugerville,78660,512,30.44,-97.62
CA,Temecula,92592,"909,760,951",33.53,-117.04
CA,Folsom,95630,"916,408",38.67,-121.14
OH,Medina,44256,330,41.13,-81.86
OH,Hamilton,45011,513,39.39,-84.56
CA,Laguna Niguel,92677,"949,714,310",33.53,-117.7
GA,Marietta,30062,"678,770,404",33.95,-84.54
CA,South San Francisco,94080,"650,415,925",37.65,-122.42
MD,Silver Spring,20906,"240,301,410",39.01,-77.02
CA,San Francisco,94110,"415,562",37.74,-122.41
GA,Atlanta,30349,"404,770,678",33.61,-84.49
CA,Riverside,92509,909,33.99,-117.44
MD,Gaithersburg,20878,"301,240,202",39.14,-77.21
CO,Aurora,80015,"303,720",39.69,-104.81
NJ,Lakewood,8701,"732,609,848,908",40.09,-74.21
FL,Hollywood,33024,"305,954,786",26.02,-80.16
CA,Hesperia,92345,"760,714",34.36,-117.32
IL,Waukegan,60085,"847,224",42.37,-87.86
TX,Cedar Park,78613,"254,512",30.51,-97.83
TX,Allen,75002,"972,469,214",33.1,-96.66
CA,La Habra,90631,"562,626,310,714,909",33.94,-117.95
FL,West Palm Beach,33411,"561,954",26.74,-80.12
IL,Des Plaines,60016,"630,847,773,224",42.03,-87.9
AZ,Yuma,85364,928,32.68,-114.66
IN,Crown Point,46307,219,41.42,-87.35
NY,Brooklyn,11223,"718,917,212",40.64,-73.94
TX,Dallas,75211,"214,972",32.79,-96.76
MD,Pasadena,21122,"410,443,202",39.11,-76.55
NY,Brooklyn,11218,"917,718,212",40.64,-73.94
AZ,Glendale,85308,"602,623",33.66,-112.18
SC,Summerville,29483,843,33,-80.17
FL,Hollywood,33023,"954,305",26.02,-80.16
NY,Brooklyn,11209,"917,718,646",40.64,-73.94
GA,Alpharetta,30022,"678,770,404",34.06,-84.27
NM,Albuquerque,87121,505,35.11,-106.62
NC,Charlotte,28277,704,35.19,-80.83
CA,Cupertino,95014,"408,650",37.3,-122.09
GA,Stockbridge,30281,"678,770,404",33.54,-84.24
NV,Las Vegas,89108,702,36.21,-115.21
NJ,Passaic,7055,"201,973,862",40.85,-74.12
VA,Chesapeake,23322,757,36.67,-76.3
IL,Chicago,60657,"312,773",41.83,-87.68
CA,Fairfield,94533,"510,707",38.28,-122
NY,Brooklyn,11215,"646,718,917",40.64,-73.94
FL,Fort Lauderdale,33311,"954,305,407",26.14,-80.13
TN,Clarksville,37042,931,36.56,-87.34
VA,Virginia Beach,23454,757,36.73,-76.04
GA,Lawrenceville,30045,"404,678,770",33.94,-83.99
NY,Staten Island,10312,"917,718,347",40.58,-74.14
AZ,Chandler,85225,"480,602",33.32,-111.82
CA,Corona,92882,"714,909,951",33.83,-117.6
CA,Anaheim,92805,"714,310,562,626,949",33.82,-117.91
MI,Taylor,48180,"313,734",42.22,-83.26
CA,San Jose,95123,408,37.23,-121.82
OH,Elyria,44035,"216,440",41.37,-82.1
MO,Ballwin,63021,"636,314",38.59,-90.55
CT,Bristol,6010,"860,203",41.68,-72.94
NY,Bay Shore,11706,"516,631",40.72,-73.25
NY,Bronx,10463,"914,718",40.84,-73.87
OR,Beaverton,97006,"503,971",45.52,-122.85
CA,San Diego,92114,"619,858",32.71,-117.05
NY,Brooklyn,11206,"917,718,347",40.64,-73.94
CA,Lake Forest,92630,"949,714",33.64,-117.67
TX,Mansfield,76063,"817,682,512,972",32.56,-97.11
CA,Sacramento,95823,"916,510",38.47,-121.44
NY,Bronx,10458,"347,718,646",40.84,-73.87
NY,Brooklyn,11221,"718,917,347",40.64,-73.94
FL,Miami,33157,"305,786",25.77,-80.2
VA,Virginia Beach,23452,757,36.73,-76.04
NJ,Bayonne,7002,"201,551",40.66,-74.11
CA,Salinas,93905,"831,408",36.67,-121.61
CA,Pomona,91766,"909,626",34.03,-117.75
OH,Grove City,43123,614,39.87,-83.07
TN,Hendersonville,37075,615,36.29,-86.6
CA,Daly City,94015,"650,415",37.67,-122.47
GA,Duluth,30096,"678,770,404",34,-84.15
IL,Mount Prospect,60056,"847,773,224,630,708",42.06,-87.93
AZ,Phoenix,85032,"602,480",33.62,-112
TX,Missouri City,77459,"832,281,713",29.57,-95.53
VA,Virginia Beach,23462,757,36.73,-76.04
WA,Redmond,98052,"425,206",47.68,-122.12
PA,Greensburg,15601,"412,724",40.31,-79.54
IL,Berwyn,60402,"708,773,630",41.84,-87.79
CA,Rosemead,91770,"626,213,323",34.06,-118.08
CA,Bakersfield,93307,"661,805",35.2,-118.86
CA,Fremont,94538,"510,707,408,925",37.5,-121.96
PA,Lancaster,17603,717,40.04,-76.3
NY,Massapequa,11758,"516,631",40.66,-73.47
WA,Pasco,99301,509,46.41,-118.9
NV,North Las Vegas,89031,702,36.27,-115.13
CO,Longmont,80501,"720,970,303",40.17,-105.11
TX,Katy,77494,"281,832",29.79,-95.82
TX,North Richland Hills,76180,"817,682",32.86,-97.21
NY,Bronx,10457,"718,917,347,646",40.84,-73.87
IL,Round Lake,60073,"847,773,224",42.34,-88.11
CA,Santa Ana,92703,714,33.74,-117.89
FL,Hialeah,33015,"305,786,954",25.86,-80.29
CA,Pico Rivera,90660,"562,323,626",33.98,-118.08
GA,Loganville,30052,"678,770",33.83,-83.89
CA,Santa Ana,92707,"714,310,949",33.71,-117.87
IL,Chicago,60619,"773,312",41.83,-87.68
NY,New York,10029,"212,917,646",40.71,-73.99
CA,Alameda,94501,"510,415",37.77,-122.27
GA,Lilburn,30047,"404,770,678",33.88,-84.13
MD,Germantown,20874,"240,301",39.17,-77.26
GA,Powder Springs,30127,"404,678,770",33.86,-84.68
TX,Burleson,76028,"817,713",32.53,-97.32
TX,Mission,78572,956,26.21,-98.31
IL,Chicago,60608,"312,773,630",41.83,-87.68
HI,Ewa Beach,96706,808,21.31,-158.01
CA,Elk Grove,95758,916,38.34,-121.42
CA,Lancaster,93536,661,34.72,-118.48
GA,Douglasville,30135,"678,770,404",33.74,-84.74
CA,Moreno Valley,92553,951,33.92,-117.24
IL,Oak Lawn,60453,"708,312",41.71,-87.75
CA,Rancho Cucamonga,91730,"714,909,760",34.09,-117.58
CA,Palmdale,93550,"661,562,310",34.52,-118.08
NY,Brentwood,11717,"631,212,516",40.78,-73.24
CA,Elk Grove,95624,916,38.44,-121.3
NY,New York,10023,"646,917,212,718",40.71,-73.99
MO,Saint Louis,63129,314,38.63,-90.24
CA,Fresno,93727,559,36.75,-119.67
CA,El Cajon,92021,"619,858",32.84,-116.88
CA,Lynwood,90262,"323,310,562,818",33.92,-118.2
NJ,Union City,7087,"201,551",40.76,-74.03
IL,Chicago,60651,"773,312,847",41.83,-87.68
FL,Jacksonville,32210,904,30.33,-81.65
PA,Lansdale,19446,"215,267,610",40.24,-75.28
OH,Westerville,43081,614,40.12,-82.91
NY,Bronx,10466,"914,718,845,347",40.84,-73.87
OH,Hilliard,43026,614,40.03,-83.14
NY,New York,10128,"212,917,646,203",40.71,-73.99
NY,Bronx,10469,"917,718,347",40.84,-73.87
OR,Portland,97229,"503,971",45.55,-122.81
PA,Philadelphia,19120,"215,267,610",39.95,-75.16
NV,Las Vegas,89121,702,36.12,-115.08
TX,Garland,75040,"469,972,214",32.91,-96.62
NJ,Jackson,8527,732,40.1,-74.35
TX,New Braunfels,78130,"210,512,830",29.7,-98.11
CA,Huntington Beach,92646,"714,562,949",33.66,-117.97
CO,Parker,80134,"303,720",39.5,-104.76
DE,New Castle,19720,302,39.66,-75.57
OH,Newark,43055,"614,740",40.06,-82.42
PA,Bensalem,19020,"215,267",40.1,-74.93
NY,New York,10024,"212,646,917,718",40.71,-73.99
OK,Yukon,73099,405,35.51,-97.76
IL,Chicago,60614,"312,773",41.83,-87.68
CT,Stamford,6902,203,41.09,-73.55
FL,Port Saint Lucie,34953,561,27.27,-80.35
MA,Malden,2148,"617,781,339,857",42.43,-71.05
UT,Clearfield,84015,801,41.11,-112.05
PA,Morrisville,19067,"215,267",40.2,-74.78
OK,Broken Arrow,74012,918,36.03,-95.78
CA,Porterville,93257,559,35.96,-118.92
PA,Philadelphia,19111,215,40.06,-75.07
OH,Painesville,44077,440,41.72,-81.24
CA,Los Angeles,90026,"213,323,818",34.07,-118.26
CA,Fountain Valley,92708,"714,626,949",33.71,-117.94
NJ,Wayne,7470,"201,973,862",40.94,-74.24
CA,Calexico,92231,760,32.69,-115.51
CA,San Francisco,94122,"415,619",37.76,-122.48
IL,Arlington Heights,60004,"847,312,224",42.09,-87.98
TX,Dallas,75228,"214,972",32.79,-96.76
IL,Chicago,60640,"312,773,847",41.83,-87.68
HI,Mililani,96789,808,21.45,-158.01
NC,Raleigh,27610,919,35.82,-78.65
CA,San Jose,95127,408,37.37,-121.75
TX,Lewisville,75067,"214,972,469,817",33.04,-96.98
CA,Montebello,90640,"323,818,626,213",34,-118.1
NJ,Jersey City,7305,201,40.71,-74.06
HI,Kaneohe,96744,808,21.41,-157.79
NY,Buffalo,14221,"585,716",42.88,-78.85
IL,Chicago,60638,"708,773,312,630",41.83,-87.68
OH,Lancaster,43130,"614,740",39.72,-82.59
NM,Albuquerque,87111,505,35.11,-106.62
CA,Sunnyvale,94087,"408,650,949",37.35,-122.03
NJ,Freehold,7728,"609,732,908",40.25,-74.27
NM,Albuquerque,87114,505,35.11,-106.62
CA,Tulare,93274,"559,209",36.18,-119.36
TX,Pharr,78577,956,26.18,-98.18
CA,Los Angeles,90022,"626,323,213,562",34.02,-118.15
FL,Jacksonville,32244,904,30.33,-81.65
NY,Brooklyn,11210,"718,347",40.64,-73.94
OH,Loveland,45140,513,39.26,-84.27
GA,Marietta,30066,"404,678,770",33.95,-84.54
CA,Carson,90745,"310,323,562",33.82,-118.26
DC,Washington,20011,202,38.89,-77.03
CA,Murrieta,92562,"714,951",33.54,-117.33
CA,Vacaville,95687,707,38.35,-121.93
FL,Jacksonville,32225,904,30.33,-81.65
TX,El Paso,79924,915,31.84,-106.43
CA,Lancaster,93535,"661,818",34.69,-117.9
CA,Oxnard,93030,"805,949,213",34.19,-119.17
VA,Annandale,22003,"703,571,202",38.83,-77.21
NJ,Union,7083,"908,973,201",40.69,-74.26
NY,Staten Island,10306,"917,718,646",40.58,-74.14
NY,New York,10032,"917,212,646",40.71,-73.99
CA,Anaheim,92801,"909,714,949",33.84,-117.95
VA,Fredericksburg,22407,540,38.29,-77.48
CA,Antioch,94509,"510,925",37.99,-121.81
IL,Lombard,60148,"630,773,312,847",41.87,-88.01
TX,Garland,75043,"214,972,469",32.91,-96.62
NY,New York,10033,"212,646,917",40.71,-73.99
TX,Carrollton,75007,"214,972,469",32.98,-96.89
NJ,North Bergen,7047,201,40.79,-74.02
GA,Alpharetta,30004,"404,678,770",34.06,-84.27
CA,Carmichael,95608,916,38.62,-121.32
VA,Woodbridge,22192,703,38.63,-77.26
CA,San Diego,92105,"619,858",32.73,-117.08
FL,Hollywood,33027,"954,305",26.02,-80.16
OR,Bend,97701,541,44.07,-121.25
CA,Simi Valley,93063,805,34.3,-118.72
CA,Santa Clara,95051,"408,925",37.35,-121.98
NY,Webster,14580,"585,716",43.21,-77.42
TN,Brentwood,37027,615,35.99,-86.78
FL,Hollywood,33025,"954,305",26.02,-80.16
WA,Bothell,98012,"425,206",47.84,-122.19
PA,Hanover,17331,717,39.81,-76.98
VA,Ashburn,20147,703,39.04,-77.48
CA,Panorama City,91402,818,34.22,-118.44
GA,Cumming,30040,"770,678",34.2,-84.13
CA,Hanford,93230,"209,559",36.27,-119.63
TX,San Antonio,78250,210,29.45,-98.5
IL,Chicago,60630,"773,847,312",41.83,-87.68
CA,Costa Mesa,92627,"949,714",33.64,-117.91
CA,Huntington Beach,92647,"714,949",33.72,-118
CA,Hacienda Heights,91745,"626,909,818,323,562",34,-117.97
CA,Stockton,95206,209,37.9,-121.4
MI,Macomb,48044,"248,586,810",42.66,-82.91
MD,Silver Spring,20904,"202,240,301,703,410",39.01,-77.02
MI,Ann Arbor,48103,"313,734,810,586",42.27,-83.73
IL,Aurora,60505,"630,312,331",41.76,-88.29
NC,Concord,28027,"704,980",35.4,-80.59
VA,Virginia Beach,23456,757,36.73,-76.04
MN,Saint Paul,55124,"651,763,952,612",44.94,-93.1
NM,Albuquerque,87120,505,35.11,-106.62
GA,Roswell,30075,"404,678,770",34.03,-84.35
GA,Acworth,30101,"404,770,678",34.05,-84.67
MA,Medford,2155,"617,781,978,339",42.42,-71.1
PA,Lancaster,17601,717,40.04,-76.3
HI,Honolulu,96817,808,21.3,-157.85
GA,Columbus,31907,706,32.51,-84.87
FL,Miami,33175,305,25.77,-80.2
VA,Woodbridge,22191,703,38.63,-77.26
MD,Hagerstown,21740,"240,301",39.63,-77.71
IL,Bolingbrook,60440,"630,815",41.7,-88.07
MD,Potomac,20854,"240,301",39.02,-77.19
TX,Mesquite,75150,"972,214",32.76,-96.59
OH,Columbus,43230,614,39.98,-82.98
CA,Ontario,91761,"909,714",34.02,-117.58
CA,Fremont,94539,"510,650,415,925,209,000",37.51,-121.89
CA,Hayward,94541,"510,925",37.67,-122.08
NY,Jamaica,11434,"646,917,718,347",40.68,-73.78
FL,Miami,33165,305,25.77,-80.2
OH,Findlay,45840,"419,567",41.04,-83.64
MA,Plymouth,2360,"508,617,774",41.95,-70.66
TX,Plano,75025,"214,469,972",33.04,-96.74
OH,Cleveland,44130,"440,216",41.47,-81.67
CA,Spring Valley,91977,619,32.71,-116.99
CA,Cerritos,90703,"562,626",33.86,-118.05
MD,Dundalk,21222,"443,410",39.26,-76.49
TX,Brownsville,78520,956,25.92,-97.48
OH,Mason,45040,513,39.36,-84.3
SC,Rock Hill,29732,803,34.93,-81.02
KS,Olathe,66061,913,38.88,-94.81
MA,Brockton,2301,"508,617,774",42.08,-71.02
PA,Philadelphia,19124,215,39.95,-75.16
CO,Denver,80219,"303,720",39.76,-104.87
CA,Los Angeles,90042,"213,323,818",34.11,-118.19
NC,Greensboro,27410,"910,336",36.07,-79.82
CA,San Diego,92129,"619,858",32.96,-117.12
TX,Humble,77346,"281,713",29.99,-95.26
CA,Oceanside,92057,760,33.27,-117.28
FL,Orlando,32828,407,28.5,-81.37
NY,Bronx,10472,718,40.84,-73.87
CA,Bakersfield,93306,"661,805",35.43,-118.83
CA,Los Angeles,90019,"213,323,310",34.04,-118.34
FL,Wellington,33414,561,26.74,-80.12
MI,Ypsilanti,48197,"734,248,810,586",42.24,-83.62
NY,Yonkers,10701,914,40.94,-73.86
GA,Woodstock,30188,"678,770,404",34.1,-84.51
MN,Rochester,55901,507,44.01,-92.47
MO,Saint Louis,63123,"314,636",38.63,-90.24
OH,West Chester,45069,"513,614",39.33,-84.4
MA,Peabody,1960,"978,508,617",42.53,-70.97
LA,Marrero,70072,504,29.88,-90.11
TX,Fort Worth,76137,"817,972,682",32.75,-97.33
CA,El Monte,91732,"626,323",34.07,-118.01
CA,San Jose,95111,408,37.28,-121.83
GA,Augusta,30906,706,33.45,-81.99
IL,Chicago Heights,60411,708,41.5,-87.63
TX,San Antonio,78228,210,29.45,-98.5
NJ,Piscataway,8854,"732,908,201",40.51,-74.45
GA,Cumming,30041,"678,770,404",34.2,-84.13
TX,El Paso,79907,915,31.84,-106.43
NV,Las Vegas,89117,702,36.14,-115.27
TX,San Antonio,78245,"210,830",29.45,-98.5
CA,Bakersfield,93312,"661,805",35.38,-119.22
IL,Crystal Lake,60014,"815,630,312",42.23,-88.33
WI,Milwaukee,53215,414,43.06,-87.96
SC,Goose Creek,29445,843,32.98,-79.99
OH,Hamilton,45013,513,39.39,-84.56
CA,San Pablo,94806,"510,310",37.98,-122.33
PA,West Chester,19380,"484,610",39.95,-75.6
MA,Quincy,2169,"508,617,781",42.26,-71
CA,Los Angeles,90066,"310,661,818,213,562,000,000",34,-118.43
MD,Owings Mills,21117,"410,443",39.41,-76.79
FL,Oviedo,32765,"407,321",28.65,-81.18
OH,Reynoldsburg,43068,"614,740",39.95,-82.79
UT,Ogden,84404,"801,435",41.24,-112.13
FL,Tampa,33647,813,27.95,-82.48
NY,Brooklyn,11225,718,40.64,-73.94
TN,Columbia,38401,"931,615",35.62,-87.04
NJ,Somerset,8873,"732,908",40.49,-74.48
TX,Laredo,78046,956,27.53,-99.48
NJ,East Brunswick,8816,"732,973,908",40.42,-74.41
CA,Oceanside,92056,"760,858",33.2,-117.29
VA,Chesapeake,23320,757,36.67,-76.3
NY,Bronx,10473,"917,718,347",40.84,-73.87
FL,Fort Lauderdale,33313,954,26.14,-80.13
CA,Santee,92071,"619,858",32.85,-116.99
PA,Philadelphia,19143,"215,267",39.95,-75.16
CA,Vallejo,94591,"707,916,510",38.11,-122.2
NY,New York,10009,"917,212,646,718",40.71,-73.99
TX,Round Rock,78664,512,30.51,-97.67
CA,Brentwood,94513,"925,916",37.87,-121.68
CA,Modesto,95355,"209,562",37.67,-120.95
IN,Indianapolis,46227,317,39.77,-86.14
CA,Ontario,91762,909,34.04,-117.67
TX,Laredo,78045,956,27.53,-99.48
NJ,West New York,7093,201,40.78,-74
NY,New York,10021,"212,646,917,315,347",40.77,-73.95
NY,Brooklyn,11213,"917,718,347",40.64,-73.94
CA,Los Angeles,90034,"323,310,213",34.02,-118.39
CT,West Haven,6516,"203,860",41.27,-72.96
TX,Austin,78745,512,30.26,-97.74
NC,Fayetteville,28314,910,35.05,-78.87
TX,Spring,77373,"281,832,713",30.06,-95.38
AZ,Tucson,85706,520,32.07,-110.88
CA,Tustin,92780,"714,909,661,949,818,000",33.74,-117.82
MI,Canton,48187,734,42.3,-83.48
NC,Huntersville,28078,704,35.41,-80.84
KS,Salina,67401,785,38.81,-97.61
WA,Vancouver,98682,360,45.67,-122.47
MO,Columbia,65203,573,38.95,-92.32
AZ,Mesa,85204,"602,480",33.39,-111.78
CA,Corona,92880,"760,714",33.9,-117.61
MD,Glen Burnie,21061,"410,443,301",39.16,-76.6
FL,Orlando,32825,"321,407,954",28.5,-81.37
FL,Jacksonville,32218,904,30.33,-81.65
TX,Mesquite,75149,"214,972,469",32.76,-96.59
PA,Downingtown,19335,"610,484",40,-75.7
OH,Dayton,45424,"513,937",39.77,-84.19
IL,Chicago,60622,"312,773,847",41.83,-87.68
OH,Zanesville,43701,740,39.95,-82.01
CA,Azusa,91702,"626,818",34.17,-117.87
TN,Collierville,38017,"901,662",35.05,-89.67
WA,Everett,98208,"425,206",47.9,-122.18
NV,Las Vegas,89123,702,36,-115.14
CO,Greeley,80634,"970,303",40.42,-104.74
NC,Kernersville,27284,336,36.11,-80.07
CA,Salinas,93906,"831,408",36.72,-121.63
NY,Jamaica,11432,"718,516,347",40.68,-73.78
IL,Elgin,60120,"847,224",42.03,-88.28
CA,Gilroy,95020,"408,805",37.06,-121.55
NC,Wake Forest,27587,919,35.97,-78.52
CA,San Jose,95122,"650,408",37.33,-121.83
FL,Miami,33177,"786,305",25.77,-80.2
CA,Los Angeles,90003,"323,213,310",33.96,-118.27
NJ,Irvington,7111,973,40.72,-74.23
CA,Placentia,92870,"714,626,323",33.88,-117.85
OK,Oklahoma City,73160,405,35.46,-97.51
NJ,Perth Amboy,8861,732,40.52,-74.27
IL,Chicago,60609,"773,312",41.83,-87.68
FL,Orlando,32837,"407,321",28.5,-81.37
NJ,Sicklerville,8081,856,39.73,-74.98
NY,Lockport,14094,"716,585",43.16,-78.69
FL,Clermont,34711,"352,407,863",28.55,-81.75
FL,Lake Worth,33467,561,26.61,-80.05
NY,Brooklyn,11233,718,40.64,-73.94
CA,Los Angeles,90004,"213,818,323,310",34.07,-118.31
CA,Granada Hills,91344,818,34.29,-118.5
CA,Murrieta,92563,"909,951",33.57,-117.14
AL,Birmingham,35242,205,33.52,-86.79
CA,Roseville,95747,916,38.78,-121.37
MD,Fort Washington,20744,"301,240",38.73,-77
CO,Broomfield,80020,"303,720",39.94,-105.06
NY,Newburgh,12550,"845,914",41.5,-74.02
GA,Newnan,30263,"770,678",33.37,-84.78
CA,Diamond Bar,91765,"909,310,949",33.99,-117.81
DE,Newark,19702,302,39.67,-75.75
PA,West Chester,19382,"610,484",39.95,-75.6
IL,Aurora,60506,630,41.76,-88.29
OR,Oregon City,97045,503,45.32,-122.52
HI,Honolulu,96816,808,21.3,-157.85
CA,Alhambra,91801,"626,213,323",34.09,-118.13
AZ,Tucson,85710,520,32.22,-110.82
OH,Chillicothe,45601,740,39.33,-82.98
CA,North Hills,91343,818,34.23,-118.47
MO,O Fallon,63366,"636,314",38.78,-90.7
VA,Stafford,22554,"540,703,202",38.42,-77.4
FL,Brandon,33511,813,27.92,-82.29
CA,National City,91950,"619,858",32.67,-117.09
CA,Cypress,90630,"562,714",33.81,-118.03
NC,Charlotte,28215,704,35.19,-80.83
NJ,Monroe Township,8831,"609,732",40.34,-74.44
TX,San Antonio,78247,"210,972",29.45,-98.5
VA,Hampton,23666,757,37.04,-76.29
FL,Miami,33176,"305,786",25.77,-80.2
TX,Plano,75093,"972,469,817,214",33.04,-96.74
MN,Lakeville,55044,"952,612",44.67,-93.24
MI,Grand Blanc,48439,810,42.92,-83.61
CA,San Jose,95125,"408,831",37.29,-121.88
IN,Greenwood,46143,317,39.61,-86.11
PA,Irwin,15642,"724,412",40.32,-79.69
CA,Indio,92201,760,33.71,-116.23
PA,Coatesville,19320,"610,484",39.98,-75.81
CA,Highland,92346,909,34.13,-117.15
CA,Mission Viejo,92692,"949,310,714",33.6,-117.64
NJ,Marlton,8053,"609,856",39.9,-74.92
CA,Bakersfield,93309,"661,805,408",35.34,-119.07
NY,New York,10031,"646,212,917",40.71,-73.99
CA,San Diego,92117,"619,858",32.81,-117.19
FL,Orlando,32822,"407,321",28.5,-81.37
MA,Methuen,1844,"781,978",42.71,-71.18
CA,Sacramento,95828,916,38.48,-121.4
NC,Greensboro,27406,336,36.07,-79.82
NM,Rio Rancho,87124,505,35.27,-106.66
CA,Colton,92324,"909,714",34.01,-117.27
CA,Encinitas,92024,"619,760,858,650",33.05,-117.25
FL,Lake Worth,33463,"407,561,954",26.61,-80.05
TX,Mcallen,78501,956,26.21,-98.23
NY,Flushing,11354,"917,718,347",40.77,-73.84
NY,New York,10016,"212,646,917,914,718",40.71,-73.99
CA,Rancho Cordova,95670,"916,650",38.6,-121.26
AZ,Peoria,85345,"623,602",33.57,-112.25
CA,San Diego,92130,"858,619",32.95,-117.19
VA,Fairfax,22030,"703,571",38.85,-77.29
GA,Augusta,30907,706,33.45,-81.99
IL,Barrington,60010,"847,630,312,224",42.15,-88.12
VA,Herndon,20171,"703,571,202",38.96,-77.38
TX,Dallas,75243,"214,972,469",32.79,-96.76
GA,Warner Robins,31088,478,32.61,-83.63
CA,San Pedro,90731,"310,562,424",33.73,-118.29
TX,Round Rock,78681,512,30.51,-97.67
CA,San Diego,92128,"619,858",32.99,-117.07
MN,Andover,55304,"763,612",45.25,-93.33
TX,Houston,77077,"281,713,832,512",29.76,-95.38
CA,Mission Viejo,92691,"949,714",33.6,-117.66
FL,Pompano Beach,33063,"954,754",26.23,-80.13
KY,Florence,41042,859,38.99,-84.64
FL,Pompano Beach,33065,"954,754",26.23,-80.13
IL,Chicago,60643,"312,773,847",41.83,-87.68
ID,Boise,83709,208,43.54,-116.29
TX,Weslaco,78596,956,26.16,-97.98
NV,Las Vegas,89115,702,36.23,-115.05
TN,Smyrna,37167,"615,931",35.98,-86.51
CA,Poway,92064,"858,619,760",32.97,-117.02
CA,Garden Grove,92840,714,33.78,-117.93
VA,Midlothian,23112,804,37.5,-77.63
PA,Washington,15301,724,40.17,-80.24
OH,Lakewood,44107,216,41.48,-81.8
TX,Friendswood,77546,"713,281,832",29.51,-95.19
SC,Simpsonville,29681,864,34.73,-82.25
OH,Middletown,45044,"513,937",39.5,-84.37
HI,Kailua,96734,808,21.4,-157.73
AZ,Glendale,85301,"623,602",33.53,-112.18
MO,Florissant,63031,314,38.79,-90.32
FL,Middleburg,32068,904,30.05,-81.9
FL,Miami,33161,"305,954,786",25.77,-80.2
CA,Livermore,94550,"925,408,510,415,619",37.68,-121.75
TX,Houston,77072,"713,281,832",29.76,-95.38
HI,Honolulu,96818,808,21.3,-157.85
NY,Hempstead,11550,"516,631,212,718",40.7,-73.61
MD,Baltimore,21215,"410,443",39.3,-76.61
TN,Franklin,37064,615,35.92,-86.84
NJ,Bloomfield,7003,"973,908,862",40.81,-74.18
CA,San Ramon,94583,"925,510,415,707",37.78,-121.99
IL,Elgin,60123,"847,708,224,630",42.03,-88.28
NM,Albuquerque,87105,505,35.11,-106.62
GA,Lithonia,30058,"404,678,770",33.71,-84.1
TX,Houston,77036,"713,281,832",29.76,-95.38
UT,Salt Lake City,84119,801,40.7,-111.94
WI,Madison,53711,608,43.07,-89.38
CT,Wallingford,6492,203,41.44,-72.81
PA,Lancaster,17602,717,40.04,-76.3
FL,Ormond Beach,32174,"386,407",29.28,-81.06
CA,North Hollywood,91605,"818,323",34.2,-118.39
NJ,Edison,8817,"732,848,908",40.52,-74.36
CA,Palmdale,93551,"661,323,805",34.61,-118.27
TN,Murfreesboro,37129,615,35.85,-86.39
GA,Stone Mountain,30083,"404,678,770",33.8,-84.17
TN,Mount Juliet,37122,615,36.2,-86.52
IL,Elmhurst,60126,"630,773,708",41.89,-87.94
CA,El Cajon,92020,619,32.79,-116.96
CA,Ventura,93003,"661,805",34.28,-119.22
UT,South Jordan,84095,801,40.55,-111.96
CA,Fullerton,92833,"714,310,562",33.88,-117.96
MO,Saint Charles,63303,"314,636",38.79,-90.51
MA,Taunton,2780,508,41.9,-71.09
NJ,Englishtown,7726,"732,848,908",40.29,-74.36
CO,Fort Collins,80525,970,40.55,-105.06
NC,Charlotte,28227,704,35.19,-80.83
KY,Frankfort,40601,502,38.19,-84.86
UT,Salt Lake City,84120,801,40.69,-111.99
NC,Hickory,28601,828,35.73,-81.32
GA,Mcdonough,30253,"678,770",33.45,-84.14
NY,Bronx,10460,718,40.84,-73.87
NY,Lindenhurst,11757,"516,631",40.68,-73.37
IL,Buffalo Grove,60089,"847,708,312,630",42.16,-87.96
AZ,Scottsdale,85254,"480,602",33.61,-111.94
TN,Jackson,38305,731,35.63,-88.82
LA,Kenner,70065,504,29.99,-90.24
CA,Yucaipa,92399,909,34.04,-117.01
CA,Aliso Viejo,92656,"949,714",33.57,-117.72
CA,Escondido,92027,"858,760,619",33.13,-116.98
IL,Joliet,60435,815,41.52,-88.12
CA,Yorba Linda,92886,714,33.89,-117.78
PA,Philadelphia,19149,215,39.95,-75.16
CO,Littleton,80127,"303,720",39.57,-105.14
TX,The Colony,75056,"214,972,469",33.09,-96.88
SC,Lexington,29072,803,33.98,-81.22
SC,Summerville,29485,843,33,-80.17
MI,Westland,48185,"313,734,586",42.31,-83.38
WA,Seattle,98115,"206,425",47.68,-122.28
OH,Marion,43302,"614,740,419",40.58,-83.12
TX,Wylie,75098,"214,972",33.04,-96.51
CA,San Jose,95124,"408,650",37.25,-121.92
SC,Columbia,29223,803,34,-81.03
NV,Las Vegas,89129,702,36.23,-115.29
WA,Spokane,99208,509,47.78,-117.45
NJ,Jersey City,7306,201,40.71,-74.06
MD,Silver Spring,20902,"301,240,410",39.01,-77.02
NJ,West Orange,7052,973,40.79,-74.26
MD,Catonsville,21228,"410,443,202,301",39.26,-76.74
NY,Spring Valley,10977,"845,914,917",41.11,-74.04
MN,Anoka,55303,"763,612",45.21,-93.39
NC,Monroe,28110,"704,980",34.98,-80.54
OH,Columbus,43228,614,39.98,-82.98
PA,Pottstown,19464,"484,610",40.25,-75.64
PA,Allentown,18103,"610,484,215",40.59,-75.47
NY,Jamaica,11435,"718,917,347",40.68,-73.78
SC,Rock Hill,29730,803,34.93,-81.02
TX,Carrollton,75006,"214,972,469,830",32.98,-96.89
MA,Revere,2151,"781,978,339,617",42.41,-70.99
TX,Dallas,75227,"214,972,940",32.79,-96.76
IL,Moline,61265,309,41.48,-90.48
WA,Federal Way,98023,253,47.3,-122.37
TX,Plano,75023,"214,972,281,469",33.04,-96.74
TX,Houston,77015,"281,713,832",29.76,-95.38
IL,Lake Zurich,60047,"847,312,224",42.19,-88.08
HI,Honolulu,96819,808,21.3,-157.85
TX,Fort Worth,76133,817,32.75,-97.33
MD,Baltimore,21206,"410,443",39.3,-76.61
NY,New York,10011,"646,718,917,212,516,000,000",40.71,-73.99
CA,San Francisco,94109,"415,510,650",37.79,-122.42
AZ,Phoenix,85041,602,33.38,-112.11
CA,Lincoln,95648,916,38.93,-121.25
TX,Richmond,77469,"281,832,713",29.58,-95.76
MO,Fenton,63026,"314,636",38.53,-90.45
OH,Massillon,44646,330,40.78,-81.52
CA,Martinez,94553,"510,925",37.98,-122.15
NV,Henderson,89052,702,35.98,-115.11
MT,Billings,59102,406,45.76,-108.57
MN,Saint Paul,55125,"651,612,763",44.94,-93.1
CA,Paramount,90723,"562,714,323,213",33.89,-118.16
GA,Dalton,30721,706,34.76,-84.97
GA,Atlanta,30331,"770,404",33.71,-84.53
FL,Pompano Beach,33068,954,26.23,-80.13
OH,Cincinnati,45238,513,39.09,-84.51
OH,Delaware,43015,"614,740",40.29,-83.08
MI,Roseville,48066,"586,810,248",42.5,-82.93
NV,Henderson,89074,702,36.03,-115.07
VA,Virginia Beach,23455,757,36.73,-76.04
FL,Pompano Beach,33064,"954,305,561,754",26.23,-80.13
NY,Levittown,11756,"631,516,917",40.72,-73.51
CO,Littleton,80123,"303,720",39.59,-105.01
TX,Grapevine,76051,"817,972,469",32.93,-97.07
NJ,Mount Laurel,8054,"609,856",39.94,-74.9
TX,Fort Worth,76179,"817,682",32.75,-97.33
NC,Jacksonville,28540,910,34.76,-77.4
VA,Burke,22015,703,38.78,-77.27
VA,Arlington,22204,703,38.87,-77.1
MS,Olive Branch,38654,"662,901",34.95,-89.82
GA,Covington,30016,"770,678",33.6,-83.85
CA,Ontario,91764,"909,951",34.07,-117.62
NY,Westbury,11590,"516,631,718",40.75,-73.58
NY,North Tonawanda,14120,716,43.04,-78.86
NJ,Princeton,8540,"201,609,732,908",40.35,-74.65
TX,Houston,77089,"281,713,832",29.76,-95.38
MN,Burnsville,55337,"952,612,651",44.76,-93.27
FL,Jacksonville,32246,904,30.33,-81.65
NV,Las Vegas,89147,702,36.11,-115.27
NC,Concord,28025,704,35.4,-80.59
IL,Carol Stream,60188,630,41.91,-88.13
OH,Brunswick,44212,330,41.24,-81.82
FL,Hialeah,33018,"305,786",25.86,-80.29
NC,Raleigh,27613,919,35.82,-78.65
WI,Beloit,53511,608,42.52,-89.02
SD,Sioux Falls,57106,605,43.54,-96.73
TX,San Antonio,78240,210,29.45,-98.5
CA,Tracy,95376,"209,510",37.73,-121.42
GA,Kennesaw,30144,"678,770",34.02,-84.61
MO,Springfield,65807,417,37.19,-93.28
AZ,Gilbert,85234,"480,602",33.36,-111.75
FL,Sanford,32771,407,28.78,-81.27
FL,Fort Lauderdale,33312,954,26.14,-80.13
TX,Cypress,77433,"281,832",29.96,-95.69
TX,Frisco,75035,"469,972,214",33.14,-96.81
NY,New York,10027,"646,917,212",40.71,-73.99
CA,Newbury Park,91320,805,34.17,-118.95
KS,Wichita,67212,316,37.68,-97.34
IL,Bartlett,60103,630,41.97,-88.2
ID,Twin Falls,83301,208,42.41,-114.59
MO,Saint Charles,63301,"636,314",38.79,-90.51
IL,Naperville,60565,630,41.76,-88.15
CA,Victorville,92392,760,34.49,-117.36
TN,Memphis,38109,901,35.1,-90
CA,La Mirada,90638,"562,714,626,310",33.9,-118
CA,Wilmington,90744,"310,323,562",33.77,-118.26
CA,Los Angeles,90037,"323,213,818,310",34,-118.28
KY,Richmond,40475,859,37.74,-84.29
OR,Eugene,97402,541,44.04,-123.22
WA,Marysville,98270,"360,425",48.05,-122.14
NC,Durham,27713,919,35.98,-78.91
GA,Marietta,30064,"678,404,770",33.95,-84.54
IN,New Albany,47150,812,38.3,-85.82
OH,Fairfield,45014,513,39.33,-84.54
NY,Huntington,11743,"516,631",40.87,-73.4
WA,Seattle,98103,"206,425",47.67,-122.34
MI,Holland,49424,616,42.77,-86.1
VA,Suffolk,23434,757,36.7,-76.63
TX,Houston,77088,"281,713,832",29.76,-95.38
NV,North Las Vegas,89030,702,36.21,-115.12
TX,San Antonio,78251,210,29.45,-98.5
CA,San Francisco,94116,415,37.74,-122.48
WA,Kent,98042,"253,425,206,360",47.36,-122.1
CA,Riverside,92504,"909,619,951",33.9,-117.4
CA,Sunnyvale,94086,"408,650,510",37.36,-122.02
NC,High Point,27265,336,35.98,-79.99
NJ,Egg Harbor Township,8234,"609,856",39.41,-74.58
NY,Fairport,14450,"585,716",43.1,-77.44
DE,Newark,19711,302,39.67,-75.75
WI,Madison,53704,608,43.07,-89.38
PA,Norristown,19403,"484,610",40.12,-75.33
CA,San Ysidro,92173,"619,858",32.55,-117.04
FL,Hialeah,33016,"786,954,305",25.86,-80.29
CA,San Jose,95148,408,37.33,-121.77
IL,Naperville,60540,630,41.76,-88.15
IL,Northbrook,60062,"630,847,708,224,312",42.12,-87.83
TX,Arlington,76017,"817,972",32.69,-97.12
TX,Irving,75061,"214,469,972",32.85,-96.96
AL,Montgomery,36117,334,32.35,-86.28
CA,Rowland Heights,91748,"626,562,213,909,323",33.97,-117.9
TX,Dallas,75287,"972,469,214",32.79,-96.76
CA,San Leandro,94577,"510,925,858,949",37.71,-122.16
PA,Lititz,17543,717,40.15,-76.3
TX,Flower Mound,75028,"972,214,469,817",33.02,-97.09
CA,Costa Mesa,92626,"562,714,949,626,213,000,000",33.67,-117.9
CA,Walnut,91789,"626,909,213,310,415,000",34.01,-117.85
NY,Clifton Park,12065,518,42.85,-73.8
NJ,Clementon,8021,"856,609",39.8,-74.98
LA,Denham Springs,70726,225,30.47,-90.95
PA,Warminster,18974,"215,267",40.21,-75.07
CA,Pleasanton,94566,925,37.65,-121.85
NY,Brooklyn,11201,"718,917,347,212",40.64,-73.94
CO,Denver,80229,"303,720",39.76,-104.87
NJ,Brick,8724,732,40.06,-74.11
PA,Pittsburgh,15237,"412,724",40.43,-79.97
NJ,Hoboken,7030,"201,732",40.74,-74.02
FL,The Villages,32162,352,28.92,-81.92
CA,Escondido,92026,"760,619",33.22,-117.1
NC,Raleigh,27615,919,35.82,-78.65
WI,Neenah,54956,920,44.16,-88.47
TX,Desoto,75115,"214,469,972,817",32.58,-96.86
GA,Canton,30114,"678,770",34.24,-84.49
OR,Hillsboro,97124,"503,971",45.58,-122.91
KY,Elizabethtown,42701,270,37.7,-85.87
GA,Smyrna,30080,"404,678,770",33.86,-84.51
HI,Hilo,96720,808,19.69,-155.08
CA,Van Nuys,91406,"626,805,818,323,310",34.19,-118.49
FL,Fort Lauderdale,33321,954,26.14,-80.13
CA,Canoga Park,91304,818,34.22,-118.59
MD,Rockville,20850,"240,301,410,202",39.08,-77.15
NY,Brooklyn,11238,"718,347,917",40.64,-73.94
FL,Jupiter,33458,"561,305",26.92,-80.1
NY,Ithaca,14850,607,42.44,-76.5
VA,Leesburg,20176,"703,540,571",39.1,-77.55
CA,San Bernardino,92407,"909,760",34.22,-117.37
FL,Hollywood,33029,954,26.02,-80.16
NY,Hamburg,14075,"716,718",42.72,-78.83
CA,San Bernardino,92404,909,34.17,-117.24
OK,Lawton,73505,580,34.6,-98.42
OR,Portland,97223,503,45.44,-122.76
MO,Chesterfield,63017,"314,636",38.65,-90.58
CA,Daly City,94014,"415,650,510",37.68,-122.43
OH,Columbus,43229,"614,740",39.98,-82.98
CA,Huntington Beach,92648,"714,760,949,562",33.67,-118
IL,Chicago,60613,"773,312",41.83,-87.68
CA,Upland,91786,"909,213,626",34.1,-117.66
NY,New Hyde Park,11040,"516,917,718",40.73,-73.68
IL,Plainfield,60586,815,41.61,-88.2
DC,Washington,20019,202,38.89,-77.03
CO,Colorado Springs,80918,719,38.86,-104.76
WA,Longview,98632,360,46.19,-123.05
GA,Savannah,31419,"912,404",32.08,-81.1
PA,Allentown,18102,"610,484",40.59,-75.47
MI,Trenton,48183,"734,313",42.13,-83.22
IN,Carmel,46032,317,39.96,-86.1
CA,Buena Park,90620,"714,626,949,562",33.84,-118
CA,Torrance,90503,"310,949,323,626",33.84,-118.35
CA,Lompoc,93436,805,34.6,-120.39
CO,Denver,80233,"720,303",39.76,-104.87
NY,Middletown,10940,"845,914",41.44,-74.42
MD,Gwynn Oak,21207,"410,443",39.32,-76.72
IN,Jeffersonville,47130,812,38.3,-85.72
NY,Endicott,13760,"607,585",42.09,-76.05
CO,Loveland,80538,"970,303",40.41,-105.07
CA,Fresno,93720,"209,559",36.88,-119.77
TN,Chattanooga,37421,423,35.06,-85.25
FL,Hollywood,33021,"954,305,561,754",26.02,-80.16
WI,Appleton,54915,920,44.26,-88.39
CA,Rancho Santa Margarita,92688,"949,714",33.61,-117.61
NY,New York,10003,"212,646,917,347,718",40.71,-73.99
NY,New York,10028,"212,917,646",40.71,-73.99
PA,Southampton,18966,"215,267",40.18,-75
MO,Saint Charles,63304,"314,636",38.79,-90.51
FL,Miami,33193,"786,305",25.77,-80.2
WI,Fond Du Lac,54935,920,43.77,-88.44
MI,Plymouth,48170,"248,313,734",42.37,-83.46
SC,Mount Pleasant,29464,843,32.82,-79.86
MN,Saint Paul,55106,"651,612",44.94,-93.1
NV,Las Vegas,89103,702,36.11,-115.21
WA,Bonney Lake,98391,,47.18,-122.16
TX,Houston,77064,"281,713,832,972",29.76,-95.38
MT,Kalispell,59901,406,48.19,-114.38
MO,Saint Louis,63136,314,38.63,-90.24
TX,Baytown,77521,"281,832,713",29.74,-94.96
CA,Visalia,93277,559,36.29,-119.38
CA,Moreno Valley,92557,951,33.97,-117.25
TX,Houston,77082,"281,832,713",29.76,-95.38
TX,San Antonio,78223,210,29.45,-98.5
IN,La Porte,46350,219,41.6,-86.71
WA,Renton,98058,"425,253,206",47.43,-122.11
SC,Columbia,29229,803,34,-81.03
IL,Tinley Park,60477,"708,815",41.57,-87.8
ND,Fargo,58103,701,46.87,-96.81
CA,Los Angeles,90047,"323,213,562",33.95,-118.3
FL,Miami,33147,"305,786",25.77,-80.2
DC,Washington,20002,202,38.89,-77.03
FL,Miami,33126,"305,786",25.77,-80.29
CA,Clovis,93611,"209,559",36.93,-119.56
FL,Miami,33142,"305,786,954",25.77,-80.2
CA,San Diego,92115,619,32.75,-117.07
NC,Morganton,28655,"704,828",35.74,-81.69
CA,Los Angeles,90001,"213,310,323,562",33.97,-118.24
IL,Glenview,60025,"312,847",42.07,-87.81
CT,Middletown,6457,"203,860",41.54,-72.65
CA,Campbell,95008,408,37.28,-121.95
MA,Attleboro,2703,"401,508,617,774",41.93,-71.29
NY,Scarsdale,10583,914,40.98,-73.77
TX,Houston,77070,"281,832,713",29.76,-95.38
VA,Alexandria,22304,"202,703",38.82,-77.08
CA,Santa Ana,92705,"714,213,949,619,310",33.76,-117.79
AL,Madison,35758,256,34.7,-86.74
FL,Opa Locka,33055,"305,954",25.93,-80.26
NY,Troy,12180,"518,212",42.73,-73.67
NY,Buffalo,14224,716,42.88,-78.85
IL,Orland Park,60462,708,41.61,-87.85
VA,Newport News,23608,"757,301",37.07,-76.51
IL,Palatine,60067,"847,224",42.11,-88.04
PA,Allentown,18104,"484,610",40.59,-75.47
IL,Naperville,60564,630,41.76,-88.15
OR,Eugene,97405,541,43.92,-123.08
CA,Modesto,95350,"209,559",37.67,-121.01
CA,Compton,90221,"213,310,323,424",33.87,-118.21
MA,Pittsfield,1201,413,42.45,-73.26
FL,Winter Springs,32708,407,28.68,-81.27
CA,Hollister,95023,"408,831",36.89,-121.24
AZ,Surprise,85374,"623,602",33.64,-112.38
CA,Gardena,90247,"323,310,949,213,562",33.89,-118.29
IN,Richmond,47374,"765,317",39.82,-84.88
CA,Santa Ana,92701,"714,949,562",33.75,-117.85
CA,Rancho Palos Verdes,90275,310,33.75,-118.31
OR,Portland,97206,503,45.48,-122.6
OK,Tulsa,74133,918,36.12,-95.91
IL,Bloomington,61704,309,40.47,-88.97
MI,Howell,48843,"517,586,989,248,734,000",42.6,-83.93
NC,Greensboro,27407,336,36.07,-79.82
NY,Freeport,11520,"516,917,631",40.65,-73.58
FL,Fort Lauderdale,33319,"954,561",26.14,-80.13
NY,Poughkeepsie,12603,"845,914",41.69,-73.92
VA,Williamsburg,23185,"757,202",37.27,-76.7
AL,Mobile,36695,251,30.68,-88.04
PA,Philadelphia,19134,215,39.95,-75.16
HI,Aiea,96701,808,21.38,-157.92
CT,Danbury,6810,203,41.4,-73.47
CA,Los Angeles,90063,"323,213",34.04,-118.18
NJ,Edison,8820,"732,908",40.52,-74.36
IL,Granite City,62040,618,38.71,-90.12
NY,Elmont,11003,"516,917,718",40.7,-73.7
MN,Saint Paul,55112,"612,651,763",44.94,-93.1
AZ,Phoenix,85008,"623,602",33.46,-111.98
CA,Fallbrook,92028,"760,619",33.39,-117.29
NY,Patchogue,11772,"631,917,516",40.76,-73.01
CT,Shelton,6484,"203,860",41.3,-73.13
CT,Enfield,6082,860,41.96,-72.56
NJ,Vineland,8360,856,39.46,-74.99
UT,West Jordan,84084,801,40.62,-111.98
CA,Newark,94560,"510,707,408",37.51,-122.04
FL,Miami,33162,"305,786",25.77,-80.2
IL,Pekin,61554,309,40.56,-89.62
MI,Clinton Township,48038,"586,810,248",42.58,-82.91
MD,Upper Marlboro,20774,"202,240,301,410",38.81,-76.75
TX,Harlingen,78550,956,26.19,-97.68
TX,Amarillo,79109,806,35.2,-101.81
NC,Winston Salem,27107,"336,704",36.1,-80.24
NY,Hicksville,11801,516,40.76,-73.52
CA,Morgan Hill,95037,408,37.17,-121.65
NC,Charlotte,28216,704,35.19,-80.83
UT,Bountiful,84010,801,40.88,-111.82
TX,Houston,77040,"713,979,281,832",29.76,-95.38
VA,Centreville,20120,"703,571,202",38.84,-77.44
IL,Schaumburg,60193,"847,630,224,312,708",42.03,-88.08
TX,Sugar Land,77478,"281,832,713",29.61,-95.61
NY,Bronx,10461,"718,212,347",40.84,-73.87
FL,Miami,33155,"305,786",25.77,-80.2
GA,Jonesboro,30236,"678,770,404",33.52,-84.35
NY,Tonawanda,14150,716,43,-78.87
AR,Jonesboro,72401,870,35.82,-90.68
WI,Sheboygan,53081,920,43.7,-87.74
AL,Birmingham,35215,205,33.52,-86.79
NY,Far Rockaway,11691,718,40.59,-73.81
TX,College Station,77845,"979,936",30.6,-96.31
MO,Florissant,63033,314,38.79,-90.32
FL,Tampa,33614,813,27.95,-82.48
CA,San Jose,95116,408,37.35,-121.85
CA,Castro Valley,94546,"510,925",37.7,-122.08
TX,Irving,75060,"469,972,214,817",32.85,-96.96
OR,Medford,97504,541,42.33,-122.79
AZ,Phoenix,85033,"623,602",33.49,-112.21
OR,Hillsboro,97123,503,45.44,-122.96
CA,La Mesa,91941,"619,858",32.75,-116.99
KY,Bowling Green,42101,"270,502",36.97,-86.44
MI,Holland,49423,616,42.77,-86.1
NJ,Newark,7104,973,40.72,-74.17
TX,San Marcos,78666,512,29.88,-97.92
WA,Spanaway,98387,"206,253",47.05,-122.36
DC,Washington,20009,202,38.89,-77.03
WA,Seattle,98118,206,47.54,-122.27
NY,Rego Park,11374,"917,718,347",40.72,-73.86
NC,Waxhaw,28173,704,34.92,-80.74
CA,Burlingame,94010,"415,650",37.56,-122.37
NY,South Richmond Hill,11419,"917,718,347",40.68,-73.82
MI,Sterling Heights,48310,586,42.58,-83.03
TX,Laredo,78041,956,27.53,-99.48
NJ,Linden,7036,"908,732",40.62,-74.23
NC,Cary,27513,919,35.78,-78.79
CA,San Bruno,94066,"650,415,408",37.62,-122.43
IL,Elmwood Park,60707,"708,773,312",41.92,-87.81
TX,Arlington,76010,"817,214,682,972",32.69,-97.12
OH,Wooster,44691,"330,419,234",40.81,-81.93
MO,O Fallon,63368,636,38.78,-90.7
KY,Louisville,40214,502,38.22,-85.74
MI,Livonia,48154,"734,313",42.39,-83.37
TX,El Paso,79938,915,31.84,-106.43
CA,San Jose,95136,408,37.27,-121.84
AZ,Tucson,85705,520,32.26,-111
CA,Riverside,92506,"909,951",33.92,-117.36
CA,Sun Valley,91352,"661,818,310,323,626",34.23,-118.34
NM,Albuquerque,87112,505,35.11,-106.62
FL,Deltona,32725,"321,386,407",28.9,-81.2
CA,Thousand Oaks,91360,805,34.21,-118.88
NJ,Howell,7731,732,40.14,-74.19
FL,Apopka,32703,"407,352",28.68,-81.51
TX,Dallas,75216,"972,214,469",32.79,-96.76
CA,Santa Maria,93458,805,34.95,-120.5
